SCD 1                   
1 22490U 93009B   25334.77159278  .00000511  00000+0  88914-4 0  9991
2 22490  24.9711 352.5649 0041921 197.7666 323.1878 14.45984836732361
TECHSAT 1B (GO-32)      
1 25397U 98043D   25334.55427128  .00000113  00000+0  68852-4 0  9998
2 25397  98.9913 317.4857 0002280  77.2295 282.9137 14.24371503423052
SCD 2                   
1 25504U 98060A   25334.81131177  .00000443  00000+0  72949-4 0  9990
2 25504  24.9940 215.4496 0016785 186.3591 238.6703 14.45412509431593
DLR-TUBSAT              
1 25757U 99029B   25334.88476184  .00000140  00000+0  46335-4 0  9997
2 25757  98.6555 319.0334 0013277 230.3671 129.6353 14.52350192404460
TERRA                   
1 25994U 99068A   25334.82231764  .00000516  00000+0  11455-3 0  9991
2 25994  97.9766  26.9429 0003340 121.9770 328.4030 14.60929977380649
MAROC-TUBSAT            
1 27004U 01056D   25334.46882638 -.00000013  00000+0  38013-4 0  9990
2 27004  99.7911 142.6989 0019128 292.8028 126.6977 13.70251986198976
AQUA                    
1 27424U 02022A   25334.84172799  .00001170  00000+0  24437-3 0  9990
2 27424  98.4020 295.5288 0000675 103.6095 286.5906 14.61762106254297
SENTINEL-6B             
1 66514U 25264A   25334.72469536 -.00000010  00000+0  20915-3 0  9991
2 66514  66.0386 187.5337 0011509 268.9964  90.9736 12.85877052  1748
