{
  "type": "FeatureCollection",
  "features": [
    {
      "type": "Feature",
      "properties": {
        "norad_id": 66514,
        "name": "SENTINEL-6B",
        "group": "resource",
        "lat": NaN,
        "lon": NaN,
        "alt_km": NaN,
        "timestamp": "2025-12-01T03:03:40.643697+00:00",
        "meta": {
          "OBJECT_NAME": "SENTINEL-6B",
          "OBJECT_ID": "2025-264A",
          "EPOCH": "2025-11-30T17:23:33.679104",
          "MEAN_MOTION": 12.85877052,
          "ECCENTRICITY": 0.0011509,
          "INCLINATION": 66.0386,
          "RA_OF_ASC_NODE": 187.5337,
          "ARG_OF_PERICENTER": 268.9964,
          "MEAN_ANOMALY": 90.9736,
          "EPHEMERIS_TYPE": 0,
          "CLASSIFICATION_TYPE": "U",
          "NORAD_CAT_ID": 66514,
          "ELEMENT_SET_NO": 999,
          "REV_AT_EPOCH": 174,
          "BSTAR": 0.00020915,
          "MEAN_MOTION_DOT": -1e-07,
          "MEAN_MOTION_DDOT": 0
        }
      },
      "geometry": {
        "type": "Point",
        "coordinates": [
          NaN,
          NaN
        ]
      }
    },
    {
      "type": "Feature",
      "properties": {
        "norad_id": 22490,
        "name": "SCD 1",
        "group": "resource",
        "lat": NaN,
        "lon": NaN,
        "alt_km": NaN,
        "timestamp": "2025-12-01T03:03:40.643749+00:00",
        "meta": {
          "OBJECT_NAME": "SCD 1",
          "OBJECT_ID": "1993-009B",
          "EPOCH": "2025-11-30T18:31:05.616192",
          "MEAN_MOTION": 14.45984836,
          "ECCENTRICITY": 0.0041921,
          "INCLINATION": 24.9711,
          "RA_OF_ASC_NODE": 352.5649,
          "ARG_OF_PERICENTER": 197.7666,
          "MEAN_ANOMALY": 323.1878,
          "EPHEMERIS_TYPE": 0,
          "CLASSIFICATION_TYPE": "U",
          "NORAD_CAT_ID": 22490,
          "ELEMENT_SET_NO": 999,
          "REV_AT_EPOCH": 73236,
          "BSTAR": 8.8914e-05,
          "MEAN_MOTION_DOT": 5.11e-06,
          "MEAN_MOTION_DDOT": 0
        }
      },
      "geometry": {
        "type": "Point",
        "coordinates": [
          NaN,
          NaN
        ]
      }
    },
    {
      "type": "Feature",
      "properties": {
        "norad_id": 25397,
        "name": "TECHSAT 1B (GO-32)",
        "group": "resource",
        "lat": NaN,
        "lon": NaN,
        "alt_km": NaN,
        "timestamp": "2025-12-01T03:03:40.643759+00:00",
        "meta": {
          "OBJECT_NAME": "TECHSAT 1B (GO-32)",
          "OBJECT_ID": "1998-043D",
          "EPOCH": "2025-11-30T13:18:09.038592",
          "MEAN_MOTION": 14.24371503,
          "ECCENTRICITY": 0.000228,
          "INCLINATION": 98.9913,
          "RA_OF_ASC_NODE": 317.4857,
          "ARG_OF_PERICENTER": 77.2295,
          "MEAN_ANOMALY": 282.9137,
          "EPHEMERIS_TYPE": 0,
          "CLASSIFICATION_TYPE": "U",
          "NORAD_CAT_ID": 25397,
          "ELEMENT_SET_NO": 999,
          "REV_AT_EPOCH": 42305,
          "BSTAR": 6.8852e-05,
          "MEAN_MOTION_DOT": 1.13e-06,
          "MEAN_MOTION_DDOT": 0
        }
      },
      "geometry": {
        "type": "Point",
        "coordinates": [
          NaN,
          NaN
        ]
      }
    },
    {
      "type": "Feature",
      "properties": {
        "norad_id": 25504,
        "name": "SCD 2",
        "group": "resource",
        "lat": NaN,
        "lon": NaN,
        "alt_km": NaN,
        "timestamp": "2025-12-01T03:03:40.643766+00:00",
        "meta": {
          "OBJECT_NAME": "SCD 2",
          "OBJECT_ID": "1998-060A",
          "EPOCH": "2025-11-30T19:28:17.336928",
          "MEAN_MOTION": 14.45412509,
          "ECCENTRICITY": 0.0016785,
          "INCLINATION": 24.994,
          "RA_OF_ASC_NODE": 215.4496,
          "ARG_OF_PERICENTER": 186.3591,
          "MEAN_ANOMALY": 238.6703,
          "EPHEMERIS_TYPE": 0,
          "CLASSIFICATION_TYPE": "U",
          "NORAD_CAT_ID": 25504,
          "ELEMENT_SET_NO": 999,
          "REV_AT_EPOCH": 43159,
          "BSTAR": 7.2949e-05,
          "MEAN_MOTION_DOT": 4.43e-06,
          "MEAN_MOTION_DDOT": 0
        }
      },
      "geometry": {
        "type": "Point",
        "coordinates": [
          NaN,
          NaN
        ]
      }
    },
    {
      "type": "Feature",
      "properties": {
        "norad_id": 25757,
        "name": "DLR-TUBSAT",
        "group": "resource",
        "lat": NaN,
        "lon": NaN,
        "alt_km": NaN,
        "timestamp": "2025-12-01T03:03:40.643773+00:00",
        "meta": {
          "OBJECT_NAME": "DLR-TUBSAT",
          "OBJECT_ID": "1999-029B",
          "EPOCH": "2025-11-30T21:14:03.422976",
          "MEAN_MOTION": 14.52350192,
          "ECCENTRICITY": 0.0013277,
          "INCLINATION": 98.6555,
          "RA_OF_ASC_NODE": 319.0334,
          "ARG_OF_PERICENTER": 230.3671,
          "MEAN_ANOMALY": 129.6353,
          "EPHEMERIS_TYPE": 0,
          "CLASSIFICATION_TYPE": "U",
          "NORAD_CAT_ID": 25757,
          "ELEMENT_SET_NO": 999,
          "REV_AT_EPOCH": 40446,
          "BSTAR": 4.6335e-05,
          "MEAN_MOTION_DOT": 1.4e-06,
          "MEAN_MOTION_DDOT": 0
        }
      },
      "geometry": {
        "type": "Point",
        "coordinates": [
          NaN,
          NaN
        ]
      }
    },
    {
      "type": "Feature",
      "properties": {
        "norad_id": 25994,
        "name": "TERRA",
        "group": "resource",
        "lat": NaN,
        "lon": NaN,
        "alt_km": NaN,
        "timestamp": "2025-12-01T03:03:40.643781+00:00",
        "meta": {
          "OBJECT_NAME": "TERRA",
          "OBJECT_ID": "1999-068A",
          "EPOCH": "2025-11-30T19:44:08.244096",
          "MEAN_MOTION": 14.60929977,
          "ECCENTRICITY": 0.000334,
          "INCLINATION": 97.9766,
          "RA_OF_ASC_NODE": 26.9429,
          "ARG_OF_PERICENTER": 121.977,
          "MEAN_ANOMALY": 328.403,
          "EPHEMERIS_TYPE": 0,
          "CLASSIFICATION_TYPE": "U",
          "NORAD_CAT_ID": 25994,
          "ELEMENT_SET_NO": 999,
          "REV_AT_EPOCH": 38064,
          "BSTAR": 0.00011455,
          "MEAN_MOTION_DOT": 5.16e-06,
          "MEAN_MOTION_DDOT": 0
        }
      },
      "geometry": {
        "type": "Point",
        "coordinates": [
          NaN,
          NaN
        ]
      }
    },
    {
      "type": "Feature",
      "properties": {
        "norad_id": 27004,
        "name": "MAROC-TUBSAT",
        "group": "resource",
        "lat": NaN,
        "lon": NaN,
        "alt_km": NaN,
        "timestamp": "2025-12-01T03:03:40.643791+00:00",
        "meta": {
          "OBJECT_NAME": "MAROC-TUBSAT",
          "OBJECT_ID": "2001-056D",
          "EPOCH": "2025-11-30T11:15:06.599232",
          "MEAN_MOTION": 13.70251986,
          "ECCENTRICITY": 0.00191281,
          "INCLINATION": 99.7911,
          "RA_OF_ASC_NODE": 142.6989,
          "ARG_OF_PERICENTER": 292.8028,
          "MEAN_ANOMALY": 126.6977,
          "EPHEMERIS_TYPE": 0,
          "CLASSIFICATION_TYPE": "U",
          "NORAD_CAT_ID": 27004,
          "ELEMENT_SET_NO": 999,
          "REV_AT_EPOCH": 19897,
          "BSTAR": 3.8013032e-05,
          "MEAN_MOTION_DOT": -1.3e-07,
          "MEAN_MOTION_DDOT": 0
        }
      },
      "geometry": {
        "type": "Point",
        "coordinates": [
          NaN,
          NaN
        ]
      }
    },
    {
      "type": "Feature",
      "properties": {
        "norad_id": 27424,
        "name": "AQUA",
        "group": "resource",
        "lat": NaN,
        "lon": NaN,
        "alt_km": NaN,
        "timestamp": "2025-12-01T03:03:40.643798+00:00",
        "meta": {
          "OBJECT_NAME": "AQUA",
          "OBJECT_ID": "2002-022A",
          "EPOCH": "2025-11-30T20:12:05.298336",
          "MEAN_MOTION": 14.61762106,
          "ECCENTRICITY": 6.75e-05,
          "INCLINATION": 98.402,
          "RA_OF_ASC_NODE": 295.5288,
          "ARG_OF_PERICENTER": 103.6095,
          "MEAN_ANOMALY": 286.5906,
          "EPHEMERIS_TYPE": 0,
          "CLASSIFICATION_TYPE": "U",
          "NORAD_CAT_ID": 27424,
          "ELEMENT_SET_NO": 999,
          "REV_AT_EPOCH": 25429,
          "BSTAR": 0.00024437,
          "MEAN_MOTION_DOT": 1.17e-05,
          "MEAN_MOTION_DDOT": 0
        }
      },
      "geometry": {
        "type": "Point",
        "coordinates": [
          NaN,
          NaN
        ]
      }
    }
  ]
}